OBJECT_NAME,OBJECT_ID,EPOCH,MEAN_MOTION,ECCENTRICITY,INCLINATION,RA_OF_ASC_NODE,ARG_OF_PERICENTER,MEAN_ANOMALY,EPHEMERIS_TYPE,CLASSIFICATION_TYPE,NORAD_CAT_ID,ELEMENT_SET_NO,REV_AT_EPOCH,BSTAR,MEAN_MOTION_DOT,MEAN_MOTION_DDOT
BRO-14,2024-149CM,2026-07-18T18:16:11.976672,14.96242761,.000646,97.6864,274.9711,7.5653,352.5665,0,U,60551,999,10471,.91469E-4,.975E-5,0
SATELIOT_3,2024-149CN,2026-07-18T17:29:01.940352,14.98166936,.0004702,97.6811,275.9236,349.7723,10.3403,0,U,60552,999,10480,.40406E-4,.421E-5,0
BRO-15,2024-149CP,2026-07-18T17:51:19.451232,14.96224367,.0007351,97.6789,274.5264,352.9628,7.1489,0,U,60553,999,10472,.49844E-4,.505E-5,0
UM5-RIBAT,2024-149CQ,2026-07-18T19:13:09.875136,15.01226677,.0000417,97.6599,277.1716,301.9053,58.2131,0,U,60554,999,10493,.86955E-4,.1057E-4,0
UM5-EOSAT,2024-149CR,2026-07-18T18:09:56.650752,15.01741332,.0008992,97.6778,278.1410,26.3960,333.7721,0,U,60555,999,10495,.12822E-3,.1609E-4,0
LASARSAT,2024-247Q,2026-07-17T23:09:42.630336,15.48162669,.00078224,44.9738,89.0178,183.9645,176.1185,0,U,62391,999,8808,.40982684E-3,.21749E-3,0
CROCUBE,2024-247T,2026-07-18T16:41:52.956384,15.50367216,.0008147,44.9712,81.6809,194.4286,165.6374,0,U,62394,999,8823,.40086E-3,.23011E-3,0
TEVEL2-4,2025-052D,2026-07-18T15:57:43.674048,15.35641020,.0003268,97.3855,96.1261,45.1827,314.9681,0,U,63213,999,7494,.30055E-3,.10338E-3,0
TEVEL2-5,2025-052E,2026-07-18T16:32:34.193760,15.35452998,.0003253,97.3856,96.0888,46.6134,313.5380,0,U,63214,999,7494,.27363E-3,.9347E-4,0
TEVEL2-6,2025-052F,2026-07-18T16:51:22.163904,15.35416881,.0003345,97.3856,96.0869,48.8553,311.2979,0,U,63215,999,7494,.28152E-3,.9608E-4,0
TEVEL2-1,2025-052H,2026-07-18T05:18:28.836576,15.34835684,.0004044,97.3830,95.1910,53.7107,306.4510,0,U,63217,999,7485,.28401311E-3,.9517E-4,0
TEVEL2-3,2025-052J,2026-07-18T06:42:54.396000,15.34900151,.00037787,97.3839,95.2758,55.7421,304.4179,0,U,63218,999,7486,.296017E-3,.9943E-4,0
TEVEL2-2,2025-052K,2026-07-18T06:52:30.830016,15.34848337,.00040779,97.3833,95.2592,53.6322,306.5297,0,U,63219,999,7486,.28756579E-3,.9641E-4,0
TEVEL2-9,2025-052AD,2026-07-18T16:43:03.902016,15.32797358,.0007371,97.3893,94.9749,46.9619,313.2239,0,U,63237,999,7485,.27545E-3,.8654E-4,0
TEVEL2-7,2025-052AE,2026-07-18T16:17:00.829248,15.32478825,.0007496,97.3894,94.8589,47.1803,313.0068,0,U,63238,999,7484,.26975E-3,.8389E-4,0
TEVEL2-8,2025-052AF,2026-07-18T16:29:20.012352,15.32464515,.0007519,97.3898,94.8441,48.0936,312.0946,0,U,63239,999,7484,.26842E-3,.8343E-4,0
FORESAIL-1 PRIME,2025-276DS,2026-07-18T18:02:17.676672,15.18955093,.000258,97.4186,272.4479,37.1807,322.9605,0,U,66778,999,3519,.11424E-3,.232E-4,0
